{"fetched_at":"2026-07-15T17:47:13.894Z","source":"https://celestrak.org/NORAD/elements/gp.php?NAME=HULIANWANG&FORMAT=JSON","constellation":"guowang","records":[{"OBJECT_NAME":"HULIANWANG DIGUI-76","OBJECT_ID":"2025-187D","EPOCH":"2026-07-15T04:54:31.835232","CLASSIFICATION_TYPE":"U","MEAN_MOTION":13.29323694,"ECCENTRICITY":0.0000087,"INCLINATION":50.0009,"RA_OF_ASC_NODE":105.5111,"ARG_OF_PERICENTER":351.664,"MEAN_ANOMALY":8.423,"EPHEMERIS_TYPE":0,"NORAD_CAT_ID":65308,"ELEMENT_SET_NO":999,"REV_AT_EPOCH":4342,"BSTAR":0.000034273,"MEAN_MOTION_DOT":-0.00000108,"MEAN_MOTION_DDOT":0},{"OBJECT_NAME":"HULIANWANG DIGUI-77","OBJECT_ID":"2025-187E","EPOCH":"2026-07-15T04:42:21.135744","CLASSIFICATION_TYPE":"U","MEAN_MOTION":13.29323644,"ECCENTRICITY":0.0000122,"INCLINATION":50.0044,"RA_OF_ASC_NODE":105.5551,"ARG_OF_PERICENTER":207.6448,"MEAN_ANOMALY":152.4418,"EPHEMERIS_TYPE":0,"NORAD_CAT_ID":65309,"ELEMENT_SET_NO":999,"REV_AT_EPOCH":4342,"BSTAR":0.000055474,"MEAN_MOTION_DOT":-9.8e-7,"MEAN_MOTION_DDOT":0},{"OBJECT_NAME":"HULIANWANG DIGUI-78","OBJECT_ID":"2025-187F","EPOCH":"2026-07-15T03:42:22.220640","CLASSIFICATION_TYPE":"U","MEAN_MOTION":13.29322766,"ECCENTRICITY":0.0000118,"INCLINATION":50.0109,"RA_OF_ASC_NODE":105.508,"ARG_OF_PERICENTER":310.2116,"MEAN_ANOMALY":49.8745,"EPHEMERIS_TYPE":0,"NORAD_CAT_ID":65310,"ELEMENT_SET_NO":999,"REV_AT_EPOCH":4342,"BSTAR":0.00003504,"MEAN_MOTION_DOT":-0.00000108,"MEAN_MOTION_DDOT":0},{"OBJECT_NAME":"HULIANWANG DIGUI-79","OBJECT_ID":"2025-187G","EPOCH":"2026-07-15T03:18:11.848032","CLASSIFICATION_TYPE":"U","MEAN_MOTION":13.29319498,"ECCENTRICITY":0.0000171,"INCLINATION":50.0039,"RA_OF_ASC_NODE":105.8988,"ARG_OF_PERICENTER":310.53,"MEAN_ANOMALY":49.5557,"EPHEMERIS_TYPE":0,"NORAD_CAT_ID":65311,"ELEMENT_SET_NO":999,"REV_AT_EPOCH":4341,"BSTAR":0.000031471,"MEAN_MOTION_DOT":-0.00000109,"MEAN_MOTION_DDOT":0},{"OBJECT_NAME":"HULIANWANG DIGUI-80","OBJECT_ID":"2025-187H","EPOCH":"2026-07-15T04:30:20.937312","CLASSIFICATION_TYPE":"U","MEAN_MOTION":13.29322776,"ECCENTRICITY":0.0000119,"INCLINATION":50.0029,"RA_OF_ASC_NODE":105.4757,"ARG_OF_PERICENTER":211.2006,"MEAN_ANOMALY":148.8859,"EPHEMERIS_TYPE":0,"NORAD_CAT_ID":65312,"ELEMENT_SET_NO":999,"REV_AT_EPOCH":4342,"BSTAR":0.000052336,"MEAN_MOTION_DOT":-0.000001,"MEAN_MOTION_DDOT":0},{"OBJECT_NAME":"HULIANWANG DIGUI-81","OBJECT_ID":"2025-187J","EPOCH":"2026-07-15T04:06:24.050016","CLASSIFICATION_TYPE":"U","MEAN_MOTION":13.2931965,"ECCENTRICITY":0.0000134,"INCLINATION":50.0069,"RA_OF_ASC_NODE":105.4921,"ARG_OF_PERICENTER":304.8055,"MEAN_ANOMALY":55.2804,"EPHEMERIS_TYPE":0,"NORAD_CAT_ID":65313,"ELEMENT_SET_NO":999,"REV_AT_EPOCH":4343,"BSTAR":0.000047982,"MEAN_MOTION_DOT":-0.00000102,"MEAN_MOTION_DDOT":0},{"OBJECT_NAME":"HULIANWANG DIGUI-82","OBJECT_ID":"2025-220A","EPOCH":"2026-07-15T00:59:56.114880","CLASSIFICATION_TYPE":"U","MEAN_MOTION":13.24409614,"ECCENTRICITY":0.0002145,"INCLINATION":86.4951,"RA_OF_ASC_NODE":34.4507,"ARG_OF_PERICENTER":101.1884,"MEAN_ANOMALY":258.9491,"EPHEMERIS_TYPE":0,"NORAD_CAT_ID":65817,"ELEMENT_SET_NO":999,"REV_AT_EPOCH":3860,"BSTAR":0.00008364,"MEAN_MOTION_DOT":5.1e-7,"MEAN_MOTION_DDOT":0},{"OBJECT_NAME":"HULIANWANG DIGUI-83","OBJECT_ID":"2025-220B","EPOCH":"2026-07-15T02:37:56.451360","CLASSIFICATION_TYPE":"U","MEAN_MOTION":13.24409877,"ECCENTRICITY":0.0002167,"INCLINATION":86.4973,"RA_OF_ASC_NODE":34.4867,"ARG_OF_PERICENTER":99.882,"MEAN_ANOMALY":260.2559,"EPHEMERIS_TYPE":0,"NORAD_CAT_ID":65818,"ELEMENT_SET_NO":999,"REV_AT_EPOCH":3861,"BSTAR":0.000074285,"MEAN_MOTION_DOT":4.7e-7,"MEAN_MOTION_DDOT":0},{"OBJECT_NAME":"HULIANWANG DIGUI-84","OBJECT_ID":"2025-220C","EPOCH":"2026-07-15T02:27:00.485280","CLASSIFICATION_TYPE":"U","MEAN_MOTION":13.24409704,"ECCENTRICITY":0.0002111,"INCLINATION":86.491,"RA_OF_ASC_NODE":34.3007,"ARG_OF_PERICENTER":100.4828,"MEAN_ANOMALY":259.6544,"EPHEMERIS_TYPE":0,"NORAD_CAT_ID":65819,"ELEMENT_SET_NO":999,"REV_AT_EPOCH":3861,"BSTAR":0.000057963,"MEAN_MOTION_DOT":4e-7,"MEAN_MOTION_DDOT":0},{"OBJECT_NAME":"HULIANWANG DIGUI-85","OBJECT_ID":"2025-220D","EPOCH":"2026-07-15T04:04:54.848928","CLASSIFICATION_TYPE":"U","MEAN_MOTION":13.24408614,"ECCENTRICITY":0.0002082,"INCLINATION":86.4971,"RA_OF_ASC_NODE":34.4491,"ARG_OF_PERICENTER":101.9665,"MEAN_ANOMALY":258.1703,"EPHEMERIS_TYPE":0,"NORAD_CAT_ID":65820,"ELEMENT_SET_NO":999,"REV_AT_EPOCH":3862,"BSTAR":0.000010423,"MEAN_MOTION_DOT":1.9e-7,"MEAN_MOTION_DDOT":0},{"OBJECT_NAME":"HULIANWANG DIGUI-86","OBJECT_ID":"2025-220E","EPOCH":"2026-07-15T02:05:27.129120","CLASSIFICATION_TYPE":"U","MEAN_MOTION":13.24411452,"ECCENTRICITY":0.0002062,"INCLINATION":86.4951,"RA_OF_ASC_NODE":34.4089,"ARG_OF_PERICENTER":85.2318,"MEAN_ANOMALY":274.9051,"EPHEMERIS_TYPE":0,"NORAD_CAT_ID":65821,"ELEMENT_SET_NO":999,"REV_AT_EPOCH":3861,"BSTAR":0.0000019282,"MEAN_MOTION_DOT":1.5e-7,"MEAN_MOTION_DDOT":0},{"OBJECT_NAME":"HULIANWANG DIGUI-87","OBJECT_ID":"2025-231A","EPOCH":"2026-07-15T01:21:37.653120","CLASSIFICATION_TYPE":"U","MEAN_MOTION":13.29328127,"ECCENTRICITY":0.0000516,"INCLINATION":50.0007,"RA_OF_ASC_NODE":75.8774,"ARG_OF_PERICENTER":350.4103,"MEAN_ANOMALY":9.6759,"EPHEMERIS_TYPE":0,"NORAD_CAT_ID":65995,"ELEMENT_SET_NO":999,"REV_AT_EPOCH":3659,"BSTAR":0.000051398,"MEAN_MOTION_DOT":-0.000001,"MEAN_MOTION_DDOT":0},{"OBJECT_NAME":"HULIANWANG DIGUI-88","OBJECT_ID":"2025-231B","EPOCH":"2026-07-15T01:33:41.270400","CLASSIFICATION_TYPE":"U","MEAN_MOTION":13.29323752,"ECCENTRICITY":0.0000518,"INCLINATION":49.9994,"RA_OF_ASC_NODE":75.8941,"ARG_OF_PERICENTER":333.9542,"MEAN_ANOMALY":26.1304,"EPHEMERIS_TYPE":0,"NORAD_CAT_ID":65996,"ELEMENT_SET_NO":999,"REV_AT_EPOCH":3659,"BSTAR":0.000047434,"MEAN_MOTION_DOT":-0.00000102,"MEAN_MOTION_DDOT":0},{"OBJECT_NAME":"HULIANWANG DIGUI-89","OBJECT_ID":"2025-231C","EPOCH":"2026-07-15T01:09:34.288128","CLASSIFICATION_TYPE":"U","MEAN_MOTION":13.29327894,"ECCENTRICITY":0.0000583,"INCLINATION":49.9967,"RA_OF_ASC_NODE":75.7597,"ARG_OF_PERICENTER":340.5516,"MEAN_ANOMALY":19.5334,"EPHEMERIS_TYPE":0,"NORAD_CAT_ID":65997,"ELEMENT_SET_NO":999,"REV_AT_EPOCH":3659,"BSTAR":0.000044654,"MEAN_MOTION_DOT":-0.00000103,"MEAN_MOTION_DDOT":0},{"OBJECT_NAME":"HULIANWANG DIGUI-90","OBJECT_ID":"2025-231D","EPOCH":"2026-07-15T00:57:38.490912","CLASSIFICATION_TYPE":"U","MEAN_MOTION":13.29326323,"ECCENTRICITY":0.0000552,"INCLINATION":49.9999,"RA_OF_ASC_NODE":75.7788,"ARG_OF_PERICENTER":336.9514,"MEAN_ANOMALY":23.1333,"EPHEMERIS_TYPE":0,"NORAD_CAT_ID":65998,"ELEMENT_SET_NO":999,"REV_AT_EPOCH":3659,"BSTAR":0.00005425,"MEAN_MOTION_DOT":-9.9e-7,"MEAN_MOTION_DDOT":0},{"OBJECT_NAME":"HULIANWANG DIGUI-91","OBJECT_ID":"2025-231E","EPOCH":"2026-07-15T00:45:36.420192","CLASSIFICATION_TYPE":"U","MEAN_MOTION":13.29326986,"ECCENTRICITY":0.0000526,"INCLINATION":50.0018,"RA_OF_ASC_NODE":75.7777,"ARG_OF_PERICENTER":337.0199,"MEAN_ANOMALY":23.065,"EPHEMERIS_TYPE":0,"NORAD_CAT_ID":65999,"ELEMENT_SET_NO":999,"REV_AT_EPOCH":3659,"BSTAR":0.000061726,"MEAN_MOTION_DOT":-9.5e-7,"MEAN_MOTION_DDOT":0}]}
