HULIANWANG DIGUI-76     
1 65308U 25187D   26196.20453513 -.00000108  00000+0  34273-4 0  9994
2 65308  50.0009 105.5111 0000087 351.6640   8.4230 13.29323694 43424
HULIANWANG DIGUI-77     
1 65309U 25187E   26196.19607796 -.00000098  00000+0  55474-4 0  9991
2 65309  50.0044 105.5551 0000122 207.6448 152.4418 13.29323644 43421
HULIANWANG DIGUI-78     
1 65310U 25187F   26196.15442385 -.00000108  00000+0  35040-4 0  9999
2 65310  50.0109 105.5080 0000118 310.2116  49.8745 13.29322766 43426
HULIANWANG DIGUI-79     
1 65311U 25187G   26196.13763713 -.00000109  00000+0  31471-4 0  9994
2 65311  50.0039 105.8988 0000171 310.5300  49.5557 13.29319498 43411
HULIANWANG DIGUI-80     
1 65312U 25187H   26196.18774233 -.00000100  00000+0  52336-4 0  9993
2 65312  50.0029 105.4757 0000119 211.2006 148.8859 13.29322776 43425
HULIANWANG DIGUI-81     
1 65313U 25187J   26196.17111169 -.00000102  00000+0  47982-4 0  9999
2 65313  50.0069 105.4921 0000134 304.8055  55.2804 13.29319650 43432
HULIANWANG DIGUI-82     
1 65817U 25220A   26196.04162170  .00000051  00000+0  83640-4 0  9993
2 65817  86.4951  34.4507 0002145 101.1884 258.9491 13.24409614 38609
HULIANWANG DIGUI-83     
1 65818U 25220B   26196.10968115  .00000047  00000+0  74285-4 0  9994
2 65818  86.4973  34.4867 0002167  99.8820 260.2559 13.24409877 38613
HULIANWANG DIGUI-84     
1 65819U 25220C   26196.10208895  .00000040  00000+0  57963-4 0  9994
2 65819  86.4910  34.3007 0002111 100.4828 259.6544 13.24409704 38611
HULIANWANG DIGUI-85     
1 65820U 25220D   26196.17007927  .00000019  00000+0  10423-4 0  9992
2 65820  86.4971  34.4491 0002082 101.9665 258.1703 13.24408614 38621
HULIANWANG DIGUI-86     
1 65821U 25220E   26196.08711955  .00000015  00000+0  19282-5 0  9995
2 65821  86.4951  34.4089 0002062  85.2318 274.9051 13.24411452 38615
HULIANWANG DIGUI-87     
1 65995U 25231A   26196.05668580 -.00000100  00000+0  51398-4 0  9990
2 65995  50.0007  75.8774 0000516 350.4103   9.6759 13.29328127 36591
HULIANWANG DIGUI-88     
1 65996U 25231B   26196.06506100 -.00000102  00000+0  47434-4 0  9999
2 65996  49.9994  75.8941 0000518 333.9542  26.1304 13.29323752 36594
HULIANWANG DIGUI-89     
1 65997U 25231C   26196.04831352 -.00000103  00000+0  44654-4 0  9990
2 65997  49.9967  75.7597 0000583 340.5516  19.5334 13.29327894 36598
HULIANWANG DIGUI-90     
1 65998U 25231D   26196.04002883 -.00000099  00000+0  54250-4 0  9997
2 65998  49.9999  75.7788 0000552 336.9514  23.1333 13.29326323 36595
HULIANWANG DIGUI-91     
1 65999U 25231E   26196.03167153 -.00000095  00000+0  61726-4 0  9991
2 65999  50.0018  75.7777 0000526 337.0199  23.0650 13.29326986 36597
